start=new Date('2022-08-11T00:00:00.000Z').valueOf();
sats=[{"CLASSIFICATION_TYPE":"U","OBJECT_NAME":"STARLINK-3200","TLE_LINE2":"2 49753  53.2170 257.1542 0002007  43.7049 316.4102 15.08827661 38204","SITE":"AFETR","REF_FRAME":"TEME","RCS_SIZE":"LARGE","MEAN_ELEMENT_THEORY":"SGP4","SEMIMAJOR_AXIS":"6917.918","MEAN_MOTION_DOT":"0.00000354","MEAN_MOTION":"15.08827661","OBJECT_ID":"2021-115AF","PERIOD":"95.438","MEAN_MOTION_DDOT":"0.0000000000000","TLE_LINE1":"1 49753U 21115AF  22222.54138549  .00000354  00000-0  40337-4 0  9990","CENTER_NAME":"EARTH","RA_OF_ASC_NODE":"257.1542","GP_ID":"209970468","ECCENTRICITY":"0.00020070","ELEMENT_SET_NO":"999","LAUNCH_DATE":"2021-12-02","NORAD_CAT_ID":"49753","EPHEMERIS_TYPE":"0","COUNTRY_CODE":"US","DECAY_DATE":null,"APOAPSIS":"541.172","EPOCH":"2022-08-10T12:59:35.706336","PERIAPSIS":"538.395","TIME_SYSTEM":"UTC","INCLINATION":"53.2170","FILE":"3533800","ARG_OF_PERICENTER":"43.7049","BSTAR":"0.00004033700000","REV_AT_EPOCH":"3820","MEAN_ANOMALY":"316.4102","OBJECT_TYPE":"PAYLOAD"},{"ELEMENT_SET_NO":"999","GP_ID":"209968727","ECCENTRICITY":"0.00040490","EPHEMERIS_TYPE":"0","APOAPSIS":"542.565","DECAY_DATE":null,"COUNTRY_CODE":"US","LAUNCH_DATE":"2021-12-02","NORAD_CAT_ID":"49754","PERIAPSIS":"536.963","EPOCH":"2022-08-10T11:42:48.148128","REV_AT_EPOCH":"3833","BSTAR":"-0.00011743000000","MEAN_ANOMALY":"169.4118","OBJECT_TYPE":"PAYLOAD","INCLINATION":"53.2161","TIME_SYSTEM":"UTC","ARG_OF_PERICENTER":"190.6789","FILE":"3533800","CLASSIFICATION_TYPE":"U","TLE_LINE2":"2 49754  53.2161 247.3750 0004049 190.6789 169.4118 15.08833789 38333","OBJECT_NAME":"STARLINK-3193","RCS_SIZE":"LARGE","MEAN_ELEMENT_THEORY":"SGP4","SITE":"AFETR","REF_FRAME":"TEME","MEAN_MOTION":"15.08833789","MEAN_MOTION_DOT":"-0.00002157","SEMIMAJOR_AXIS":"6917.899","TLE_LINE1":"1 49754U 21115AG  22222.48805727 -.00002157  00000-0 -11743-3 0  9996","RA_OF_ASC_NODE":"247.3750","CENTER_NAME":"EARTH","PERIOD":"95.438","OBJECT_ID":"2021-115AG","MEAN_MOTION_DDOT":"0.0000000000000"},{"PERIOD":"95.441","OBJECT_ID":"2021-115AH","MEAN_MOTION_DDOT":"0.0000000000000","TLE_LINE1":"1 49755U 21115AH  22222.21755332  .00008561  00000-0  55611-3 0  9999","RA_OF_ASC_NODE":"258.5978","CENTER_NAME":"EARTH","MEAN_MOTION_DOT":"0.00008561","SEMIMAJOR_AXIS":"6918.037","MEAN_MOTION":"15.08788901","SITE":"AFETR","REF_FRAME":"TEME","RCS_SIZE":"LARGE","MEAN_ELEMENT_THEORY":"SGP4","CLASSIFICATION_TYPE":"U","TLE_LINE2":"2 49755  53.2178 258.5978 0001005  92.2565 267.8542 15.08788901 38155","OBJECT_NAME":"STARLINK-3210","INCLINATION":"53.2178","TIME_SYSTEM":"UTC","FILE":"3533800","ARG_OF_PERICENTER":"92.2565","BSTAR":"0.00055611000000","MEAN_ANOMALY":"267.8542","REV_AT_EPOCH":"3815","OBJECT_TYPE":"PAYLOAD","EPOCH":"2022-08-10T05:13:16.606848","PERIAPSIS":"539.206","LAUNCH_DATE":"2021-12-02","NORAD_CAT_ID":"49755","EPHEMERIS_TYPE":"0","APOAPSIS":"540.597","DECAY_DATE":null,"COUNTRY_CODE":"US","GP_ID":"209969472","ECCENTRICITY":"0.00010050","ELEMENT_SET_NO":"999"},{"LAUNCH_DATE":"2021-12-02","NORAD_CAT_ID":"49756","EPHEMERIS_TYPE":"0","APOAPSIS":"540.984","DECAY_DATE":null,"COUNTRY_CODE":"US","GP_ID":"209970226","ECCENTRICITY":"0.00017690","ELEMENT_SET_NO":"999","INCLINATION":"53.2155","TIME_SYSTEM":"UTC","ARG_OF_PERICENTER":"66.0752","FILE":"3533800","BSTAR":"0.00003042100000","MEAN_ANOMALY":"294.0426","REV_AT_EPOCH":"3831","OBJECT_TYPE":"PAYLOAD","EPOCH":"2022-08-10T08:57:09.029088","PERIAPSIS":"538.536","SITE":"AFETR","REF_FRAME":"TEME","RCS_SIZE":"LARGE","MEAN_ELEMENT_THEORY":"SGP4","CLASSIFICATION_TYPE":"U","TLE_LINE2":"2 49756  53.2155 247.8950 0001769  66.0752 294.0426 15.08835182 38311","OBJECT_NAME":"STARLINK-3207","PERIOD":"95.438","OBJECT_ID":"2021-115AJ","MEAN_MOTION_DDOT":"0.0000000000000","TLE_LINE1":"1 49756U 21115AJ  22222.37302117  .00000196  00000-0  30421-4 0  9995","RA_OF_ASC_NODE":"247.8950","CENTER_NAME":"EARTH","MEAN_MOTION_DOT":"0.00000196","SEMIMAJOR_AXIS":"6917.895","MEAN_MOTION":"15.08835182"},{"CLASSIFICATION_TYPE":"U","TLE_LINE2":"2 49757  53.2141 247.6335 0002096  42.6283 317.4871 15.08826217 38329","OBJECT_NAME":"STARLINK-3197","RCS_SIZE":"LARGE","MEAN_ELEMENT_THEORY":"SGP4","SITE":"AFETR","REF_FRAME":"TEME","MEAN_MOTION":"15.08826217","MEAN_MOTION_DOT":"-0.00003966","SEMIMAJOR_AXIS":"6917.923","TLE_LINE1":"1 49757U 21115AK  22222.43190318 -.00003966  00000-0 -23126-3 0  9994","RA_OF_ASC_NODE":"247.6335","CENTER_NAME":"EARTH","PERIOD":"95.438","OBJECT_ID":"2021-115AK","MEAN_MOTION_DDOT":"0.0000000000000","ELEMENT_SET_NO":"999","GP_ID":"209969969","ECCENTRICITY":"0.00020960","EPHEMERIS_TYPE":"0","APOAPSIS":"541.238","COUNTRY_CODE":"US","DECAY_DATE":null,"LAUNCH_DATE":"2021-12-02","NORAD_CAT_ID":"49757","PERIAPSIS":"538.338","EPOCH":"2022-08-10T10:21:56.434752","REV_AT_EPOCH":"3832","BSTAR":"-0.00023126000000","MEAN_ANOMALY":"317.4871","OBJECT_TYPE":"PAYLOAD","INCLINATION":"53.2141","TIME_SYSTEM":"UTC","FILE":"3533800","ARG_OF_PERICENTER":"42.6283"},{"BSTAR":"-0.00008686800000","REV_AT_EPOCH":"3832","MEAN_ANOMALY":"316.2275","OBJECT_TYPE":"PAYLOAD","TIME_SYSTEM":"UTC","INCLINATION":"53.2166","FILE":"3533800","ARG_OF_PERICENTER":"43.8869","PERIAPSIS":"538.465","EPOCH":"2022-08-10T10:43:09.135264","EPHEMERIS_TYPE":"0","DECAY_DATE":null,"COUNTRY_CODE":"US","APOAPSIS":"541.120","LAUNCH_DATE":"2021-12-02","NORAD_CAT_ID":"49758","ELEMENT_SET_NO":"999","GP_ID":"209969227","ECCENTRICITY":"0.00019190","TLE_LINE1":"1 49758U 21115AL  22222.44663351 -.00001670  00000-0 -86868-4 0  9991","CENTER_NAME":"EARTH","RA_OF_ASC_NODE":"247.5698","OBJECT_ID":"2021-115AL","PERIOD":"95.439","MEAN_MOTION_DDOT":"0.0000000000000","MEAN_MOTION":"15.08824503","MEAN_MOTION_DOT":"-0.00001670","SEMIMAJOR_AXIS":"6917.928","RCS_SIZE":"LARGE","MEAN_ELEMENT_THEORY":"SGP4","SITE":"AFETR","REF_FRAME":"TEME","CLASSIFICATION_TYPE":"U","OBJECT_NAME":"STARLINK-3194","TLE_LINE2":"2 49758  53.2166 247.5698 0001919  43.8869 316.2275 15.08824503 38325"},{"MEAN_MOTION_DOT":"-0.00001536","SEMIMAJOR_AXIS":"6917.913","MEAN_MOTION":"15.08829253","MEAN_MOTION_DDOT":"0.0000000000000","OBJECT_ID":"2021-115AM","PERIOD":"95.438","CENTER_NAME":"EARTH","RA_OF_ASC_NODE":"247.0310","TLE_LINE1":"1 49759U 21115AM  22222.56806868 -.00001536  00000-0 -78423-4 0  9996","OBJECT_NAME":"STARLINK-3204","TLE_LINE2":"2 49759  53.2165 247.0310 0002047  45.5074 314.6086 15.08829253 38342","CLASSIFICATION_TYPE":"U","REF_FRAME":"TEME","SITE":"AFETR","MEAN_ELEMENT_THEORY":"SGP4","RCS_SIZE":"LARGE","EPOCH":"2022-08-10T13:38:01.133952","PERIAPSIS":"538.362","ARG_OF_PERICENTER":"45.5074","FILE":"3533963","TIME_SYSTEM":"UTC","INCLINATION":"53.2165","OBJECT_TYPE":"PAYLOAD","BSTAR":"-0.00007842300000","MEAN_ANOMALY":"314.6086","REV_AT_EPOCH":"3834","ECCENTRICITY":"0.00020470","GP_ID":"209996761","ELEMENT_SET_NO":"999","NORAD_CAT_ID":"49759","LAUNCH_DATE":"2021-12-02","COUNTRY_CODE":"US","DECAY_DATE":null,"APOAPSIS":"541.194","EPHEMERIS_TYPE":"0"},{"OBJECT_NAME":"STARLINK-3199","TLE_LINE2":"2 49760  53.2179 249.0213 0001932  36.9504 323.1621 15.08827883 39390","CLASSIFICATION_TYPE":"U","MEAN_ELEMENT_THEORY":"SGP4","RCS_SIZE":"LARGE","REF_FRAME":"TEME","SITE":"AFETR","MEAN_MOTION":"15.08827883","MEAN_MOTION_DOT":"0.00000324","SEMIMAJOR_AXIS":"6917.917","CENTER_NAME":"EARTH","RA_OF_ASC_NODE":"249.0213","TLE_LINE1":"1 49760U 21115AN  22222.12278353  .00000324  00000-0  38453-4 0  9993","MEAN_MOTION_DDOT":"0.0000000000000","OBJECT_ID":"2021-115AN","PERIOD":"95.438","ELEMENT_SET_NO":"999","ECCENTRICITY":"0.00019320","GP_ID":"209973829","COUNTRY_CODE":"US","DECAY_DATE":null,"APOAPSIS":"541.119","EPHEMERIS_TYPE":"0","NORAD_CAT_ID":"49760","LAUNCH_DATE":"2021-12-02","PERIAPSIS":"538.446","EPOCH":"2022-08-10T02:56:48.496992","OBJECT_TYPE":"PAYLOAD","MEAN_ANOMALY":"323.1621","BSTAR":"0.00003845300000","REV_AT_EPOCH":"3939","FILE":"3533912","ARG_OF_PERICENTER":"36.9504","TIME_SYSTEM":"UTC","INCLINATION":"53.2179"},{"OBJECT_NAME":"STARLINK-3203","TLE_LINE2":"2 49761  53.2155 247.5935 0002116  46.5030 313.6138 15.08828975 38327","CLASSIFICATION_TYPE":"U","MEAN_ELEMENT_THEORY":"SGP4","RCS_SIZE":"LARGE","REF_FRAME":"TEME","SITE":"AFETR","MEAN_MOTION":"15.08828975","SEMIMAJOR_AXIS":"6917.914","MEAN_MOTION_DOT":"0.00000283","CENTER_NAME":"EARTH","RA_OF_ASC_NODE":"247.5935","TLE_LINE1":"1 49761U 21115AP  22222.44294223  .00000283  00000-0  35914-4 0  9996","MEAN_MOTION_DDOT":"0.0000000000000","OBJECT_ID":"2021-115AP","PERIOD":"95.438","ELEMENT_SET_NO":"999","ECCENTRICITY":"0.00021160","GP_ID":"209970469","COUNTRY_CODE":"US","DECAY_DATE":null,"APOAPSIS":"541.243","EPHEMERIS_TYPE":"0","NORAD_CAT_ID":"49761","LAUNCH_DATE":"2021-12-02","PERIAPSIS":"538.315","EPOCH":"2022-08-10T10:37:50.208672","OBJECT_TYPE":"PAYLOAD","BSTAR":"0.00003591400000","MEAN_ANOMALY":"313.6138","REV_AT_EPOCH":"3832","ARG_OF_PERICENTER":"46.5030","FILE":"3533800","TIME_SYSTEM":"UTC","INCLINATION":"53.2155"},{"RA_OF_ASC_NODE":"246.0232","CENTER_NAME":"EARTH","TLE_LINE1":"1 49762U 21115AQ  22222.79254825 -.00002154  00000-0 -11728-3 0  9996","MEAN_MOTION_DDOT":"0.0000000000000","PERIOD":"95.438","OBJECT_ID":"2021-115AQ","MEAN_MOTION":"15.08831833","MEAN_MOTION_DOT":"-0.00002154","SEMIMAJOR_AXIS":"6917.905","MEAN_ELEMENT_THEORY":"SGP4","RCS_SIZE":"LARGE","REF_FRAME":"TEME","SITE":"AFETR","TLE_LINE2":"2 49762  53.2161 246.0232 0001909  48.3692 311.7463 15.08831833 38385","OBJECT_NAME":"STARLINK-3195","CLASSIFICATION_TYPE":"U","OBJECT_TYPE":"PAYLOAD","REV_AT_EPOCH":"3838","BSTAR":"-0.00011728000000","MEAN_ANOMALY":"311.7463","FILE":"3533963","ARG_OF_PERICENTER":"48.3692","INCLINATION":"53.2161","TIME_SYSTEM":"UTC","PERIAPSIS":"538.450","EPOCH":"2022-08-10T19:01:16.168800","APOAPSIS":"541.091","DECAY_DATE":null,"COUNTRY_CODE":"US","EPHEMERIS_TYPE":"0","NORAD_CAT_ID":"49762","LAUNCH_DATE":"2021-12-02","ELEMENT_SET_NO":"999","ECCENTRICITY":"0.00019090","GP_ID":"209997011"}];
